NORAD_CAT_ID,OBJECT_NAME,OBJECT_TYPE,EPOCH,MEAN_MOTION,ECCENTRICITY,INCLINATION,RA_OF_ASC_NODE,ARG_OF_PERICENTER,MEAN_ANOMALY,BSTAR,MEAN_MOTION_DOT,MEAN_MOTION_DDOT,TLE_LINE0,TLE_LINE1,TLE_LINE2,SEMIMAJOR_AXIS,PERIOD,APOGEE,PERIGEE,DECAYED
52267.0,STARLINK-3748,PAYLOAD,2023-06-28 13:47:47,15.08840422,0.0001066,53.216,211.4719,87.5533,272.5581,5.2523e-05,5.48e-06,0.0,0 STARLINK-3748,1 52267U 22041G   23179.57485793  .00000548  00000-0  52523-4 0  9999,2 52267  53.2160 211.4719 0001066  87.5533 272.5581 15.08840422 66860,6917.879,95.438,540.482,539.007,0.0
52267.0,STARLINK-3748,PAYLOAD,2023-07-01 08:34:00,15.08834223,0.0001021,53.2157,198.9829,86.8915,273.2194,7.3965e-06,-1.7e-06,0.0,0 STARLINK-3748,1 52267U 22041G   23182.35694831 -.00000170  00000-0  73965-5 0  9990,2 52267  53.2157 198.9829 0001021  86.8915 273.2194 15.08834223 67281,6917.898,95.438,540.469,539.057,0.0
52267.0,STARLINK-3748,PAYLOAD,2023-07-02 13:10:56,15.08839152,0.0001033,53.2158,193.6303,87.603,272.508,3.8993e-05,3.33e-06,0.0,0 STARLINK-3748,1 52267U 22041G   23183.54926644  .00000333  00000-0  38993-4 0  9993,2 52267  53.2158 193.6303 0001033  87.6030 272.5080 15.08839152 67463,6917.883,95.438,540.463,539.033,0.0
52267.0,STARLINK-3748,PAYLOAD,2023-07-03 17:47:52,15.08840492,0.0001032,53.216,188.277,87.1541,272.957,6.1706e-05,6.94e-06,0.0,0 STARLINK-3748,1 52267U 22041G   23184.74158429  .00000694  00000-0  61706-4 0  9992,2 52267  53.2160 188.2770 0001032  87.1541 272.9570 15.08840492 67642,6917.879,95.438,540.458,539.03,0.0
52267.0,STARLINK-3748,PAYLOAD,2023-07-05 09:32:31,15.08842151,0.0001071,53.2163,180.843,88.7857,271.3258,1.2206e-05,-9.4e-07,0.0,0 STARLINK-3748,1 52267U 22041G   23186.39758320 -.00000094  00000-0  12206-4 0  9997,2 52267  53.2163 180.8430 0001071  88.7857 271.3258 15.08842151 67893,6917.874,95.437,540.48,538.998,0.0
52267.0,STARLINK-3748,PAYLOAD,2023-07-06 07:47:55,15.08837386,0.0001068,53.2162,176.6807,87.3395,272.7719,1.7444e-05,-1e-07,0.0,0 STARLINK-3748,1 52267U 22041G   23187.32494728 -.00000010  00000-0  17444-4 0  9997,2 52267  53.2162 176.6807 0001068  87.3395 272.7719 15.08837386 68039,6917.888,95.438,540.492,539.015,0.0
52267.0,STARLINK-3748,PAYLOAD,2023-07-07 15:35:38,15.08836843,0.0001103,53.2164,170.7335,86.4353,273.6766,2.0795e-05,4.3e-07,0.0,0 STARLINK-3748,1 52267U 22041G   23188.64974966  .00000043  00000-0  20795-4 0  9998,2 52267  53.2164 170.7335 0001103  86.4353 273.6766 15.08836843 68237,6917.89,95.438,540.518,538.992,0.0
52267.0,STARLINK-3748,PAYLOAD,2023-07-09 02:34:08,15.08831013,0.0001351,53.2167,164.1918,99.7176,260.3969,-2.3223e-05,-6.57e-06,0.0,0 STARLINK-3748,1 52267U 22041G   23190.10703942 -.00000657  00000-0 -23223-4 0  9998,2 52267  53.2167 164.1918 0001351  99.7176 260.3969 15.08831013 68455,6917.908,95.438,540.707,538.838,0.0
52267.0,STARLINK-3748,PAYLOAD,2023-07-10 02:24:54,15.08839826,0.0001233,53.2168,159.7312,95.3076,264.8056,7.5448e-05,9.13e-06,0.0,0 STARLINK-3748,1 52267U 22041G   23191.10063305  .00000913  00000-0  75448-4 0  9990,2 52267  53.2168 159.7312 0001233  95.3076 264.8056 15.08839826 68607,6917.881,95.438,540.599,538.893,0.0
52267.0,STARLINK-3748,PAYLOAD,2023-07-11 07:01:51,15.08835963,0.0001333,53.2167,154.3797,77.3378,282.7763,9.7091e-05,1.257e-05,0.0,0 STARLINK-3748,1 52267U 22041G   23192.29295708  .00001257  00000-0  97091-4 0  9995,2 52267  53.2167 154.3797 0001333  77.3378 282.7763 15.08835963 68781,6917.893,95.438,540.68,538.836,0.0
52267.0,STARLINK-3748,PAYLOAD,2023-07-12 03:41:51,15.08847054,0.0001302,53.2167,150.5124,86.1071,274.007,4.8604e-05,4.86e-06,0.0,0 STARLINK-3748,1 52267U 22041G   23193.15406984  .00000486  00000-0  48604-4 0  9990,2 52267  53.2167 150.5124 0001302  86.1071 274.0070 15.08847054 68911,6917.859,95.437,540.625,538.823,0.0
52267.0,STARLINK-3748,PAYLOAD,2023-07-13 03:32:39,15.08840427,0.0001295,53.2175,146.0521,84.2597,275.8543,1.6789e-05,-2.1e-07,0.0,0 STARLINK-3748,1 52267U 22041G   23194.14767526 -.00000021  00000-0  16789-4 0  9997,2 52267  53.2175 146.0521 0001295  84.2597 275.8543 15.08840427 69062,6917.879,95.438,540.64,538.848,0.0
52267.0,STARLINK-3748,PAYLOAD,2023-07-14 06:34:12,15.08844625,0.0001296,53.2169,140.9964,93.604,266.51,1.0556e-05,-1.2e-06,0.0,0 STARLINK-3748,1 52267U 22041G   23195.27375343 -.00000120  00000-0  10556-4 0  9990,2 52267  53.2169 140.9964 0001296  93.6040 266.5100 15.08844625 69236,6917.866,95.437,540.628,538.835,0.0
52267.0,STARLINK-3748,PAYLOAD,2023-07-15 00:03:27,15.08839633,0.0001199,53.2165,137.7251,79.2306,280.8821,4.0631e-05,3.59e-06,0.0,0 STARLINK-3748,1 52267U 22041G   23196.00239666  .00000359  00000-0  40631-4 0  9999,2 52267  53.2165 137.7251 0001199  79.2306 280.8821 15.08839633 69346,6917.882,95.438,540.576,538.917,0.0
52267.0,STARLINK-3748,PAYLOAD,2023-07-15 03:14:12,15.08846,0.0001274,53.2171,137.1338,91.2856,268.8282,0.00011023,1.467e-05,0.0,0 STARLINK-3748,1 52267U 22041G   23196.13487024  .00001467  00000-0  11023-3 0  9999,2 52267  53.2171 137.1338 0001274  91.2856 268.8282 15.08846000 69366,6917.862,95.437,540.608,538.846,0.0
52267.0,STARLINK-3748,PAYLOAD,2023-07-16 03:05:01,15.08845733,0.0001482,53.2169,132.6738,96.5256,263.5904,-0.00025878,-4.405e-05,0.0,0 STARLINK-3748,1 52267U 22041G   23197.12848433 -.00004405  00000-0 -25878-3 0  9994,2 52267  53.2169 132.6738 0001482  96.5256 263.5904 15.08845733 69512,6917.863,95.437,540.753,538.703,0.0
52267.0,STARLINK-3748,PAYLOAD,2023-07-17 12:28:06,15.0884778,0.0001297,53.2173,126.4269,83.6587,276.4552,-2.2339e-05,-6.43e-06,0.0,0 STARLINK-3748,1 52267U 22041G   23198.51951777 -.00000643  00000-0 -22339-4 0  9994,2 52267  53.2173 126.4269 0001297  83.6587 276.4552 15.08847780 69724,6917.857,95.437,540.619,538.824,0.0
52267.0,STARLINK-3748,PAYLOAD,2023-07-17 23:35:48,15.08837444,0.0001323,53.2173,124.3457,81.2136,278.9006,0.00010919,1.45e-05,0.0,0 STARLINK-3748,1 52267U 22041G   23198.98320177  .00001450  00000-0  10919-3 0  9994,2 52267  53.2173 124.3457 0001323  81.2136 278.9006 15.08837444 69798,6917.888,95.438,540.668,538.838,0.0
52267.0,STARLINK-3748,PAYLOAD,2023-07-18 02:46:34,15.08843431,0.0001434,53.2176,123.7512,83.1126,277.0029,0.00015884,2.241e-05,0.0,0 STARLINK-3748,1 52267U 22041G   23199.11567727  .00002241  00000-0  15884-3 0  9999,2 52267  53.2176 123.7512 0001434  83.1126 277.0029 15.08843431 69810,6917.87,95.437,540.727,538.743,0.0
52267.0,STARLINK-3748,PAYLOAD,2023-07-19 18:31:13,15.08838543,0.000165,53.2175,116.3161,78.6136,281.5041,1.4896e-05,-5.1e-07,0.0,0 STARLINK-3748,1 52267U 22041G   23200.77168667 -.00000051  00000-0  14896-4 0  9995,2 52267  53.2175 116.3161 0001650  78.6136 281.5041 15.08838543 70068,6917.885,95.438,540.891,538.608,0.0
52267.0,STARLINK-3748,PAYLOAD,2023-07-20 18:22:00,15.08831736,0.0001221,53.2165,111.8533,79.6902,280.4228,6.1064e-05,6.84e-06,0.0,0 STARLINK-3748,1 52267U 22041G   23201.76528895  .00000684  00000-0  61064-4 0  9998,2 52267  53.2165 111.8533 0001221  79.6902 280.4228 15.08831736 70215,6917.906,95.438,540.615,538.926,0.0
52267.0,STARLINK-3748,PAYLOAD,2023-07-21 00:43:32,15.08838467,0.0001396,53.2172,110.6661,95.9105,264.2046,0.00014644,2.043e-05,0.0,0 STARLINK-3748,1 52267U 22041G   23202.03024191  .00002043  00000-0  14644-3 0  9991,2 52267  53.2172 110.6661 0001396  95.9105 264.2046 15.08838467 70251,6917.885,95.438,540.716,538.784,0.0
52267.0,STARLINK-3748,PAYLOAD,2023-07-24 01:51:18,15.08834364,0.0001696,53.2188,96.9885,109.4838,250.6337,-7.8278e-05,-1.533e-05,0.0,0 STARLINK-3748,1 52267U 22041G   23205.07729724 -.00001533  00000-0 -78278-4 0  9991,2 52267  53.2188  96.9885 0001696 109.4838 250.6337 15.08834364 69497,6917.898,95.438,540.936,538.589,0.0
52267.0,STARLINK-3748,PAYLOAD,2023-07-24 22:31:18,15.08841138,0.000136,53.2182,93.1215,94.7961,265.3187,0.00011517,1.546e-05,0.0,0 STARLINK-3748,1 52267U 22041G   23205.93840854  .00001546  00000-0  11517-3 0  9998,2 52267  53.2182  93.1215 0001360  94.7961 265.3187 15.08841138 69626,6917.877,95.437,540.683,538.801,0.0
52267.0,STARLINK-3748,PAYLOAD,2023-07-25 23:57:28,15.08842585,0.0001257,53.2172,88.3647,91.3687,268.7449,7.834e-05,9.59e-06,0.0,0 STARLINK-3748,1 52267U 22041G   23206.99825156  .00000959  00000-0  78340-4 0  9998,2 52267  53.2172  88.3647 0001257  91.3687 268.7449 15.08842585 69785,6917.872,95.437,540.607,538.868,0.0
52267.0,STARLINK-3748,PAYLOAD,2023-07-26 22:12:52,15.08843579,0.0001339,53.2175,84.2015,88.5627,271.5518,6.164e-05,6.93e-06,0.0,0 STARLINK-3748,1 52267U 22041G   23207.92560890  .00000693  00000-0  61640-4 0  9993,2 52267  53.2175  84.2015 0001339  88.5627 271.5518 15.08843579 69924,6917.869,95.437,540.661,538.808,0.0
52267.0,STARLINK-3748,PAYLOAD,2023-07-27 01:23:38,15.08849929,0.0001274,53.2174,83.6061,92.3089,267.8049,0.00011895,1.606e-05,0.0,0 STARLINK-3748,1 52267U 22041G   23208.05808265  .00001606  00000-0  11895-3 0  9990,2 52267  53.2174  83.6061 0001274  92.3089 267.8049 15.08849929 71161,6917.85,95.437,540.596,538.834,0.0
52267.0,STARLINK-3748,PAYLOAD,2023-07-27 09:20:35,15.08832865,0.0001451,53.2171,82.1203,80.6756,279.4401,-2.9904e-05,-7.64e-06,0.0,0 STARLINK-3748,1 52267U 22041G   23208.38929903 -.00000764  00000-0 -29904-4 0  9996,2 52267  53.2171  82.1203 0001451  80.6756 279.4401 15.08832865 71216,6917.902,95.438,540.771,538.763,0.0
52267.0,STARLINK-3748,PAYLOAD,2023-07-27 22:03:40,15.08830538,0.000143,53.2172,79.7412,84.3504,275.7651,-5.3729e-05,-1.143e-05,0.0,0 STARLINK-3748,1 52267U 22041G   23208.91922345 -.00001143  00000-0 -53729-4 0  9992,2 52267  53.2172  79.7412 0001430  84.3504 275.7651 15.08830538 70074,6917.909,95.438,540.764,538.785,0.0
52267.0,STARLINK-3748,PAYLOAD,2023-07-28 15:32:54,15.088425,0.0001401,53.2193,76.4697,91.5373,268.5779,3.8183e-05,3.2e-06,0.0,0 STARLINK-3748,1 52267U 22041G   23209.64785467  .00000320  00000-0  38183-4 0  9996,2 52267  53.2193  76.4697 0001401  91.5373 268.5779 15.08842500 71409,6917.873,95.437,540.707,538.769,0.0
